ONEWEB-0531             
1 54146U 22138AK  24143.86153637 -.00000372  00000+0 -94670-3 0  9991
2 54146  87.9223  64.7178 0002634  55.8827 304.2556 13.20771680 80475
ONEWEB-0535             
1 54147U 22138AL  24143.41332442  .00000012  00000+0 -23257-5 0  9991
2 54147  87.9133  95.3679 0002016  75.5014 284.6343 13.19727823 77157
ONEWEB-0536             
1 54148U 22138AM  24143.31860100  .00000763  00000+0  18449-2 0  9994
2 54148  87.9223  64.8750 0002077  50.0208 310.1107 13.20771337 79526
ONEWEB-0527             
1 54642U 22166A   24143.26703093 -.00000284  00000+0 -72016-3 0  9996
2 54642  87.9316  34.4659 0001966  79.2081 280.9274 13.21825064 72123
ONEWEB-0528             
1 54643U 22166B   24143.19764364  .00000077  00000+0  15479-3 0  9995
2 54643  87.9318  34.4659 0002000  84.2331 275.9031 13.21828400 71671
ONEWEB-0539             
1 54644U 22166C   24143.23391468 -.00000020  00000+0 -79664-4 0  9999
2 54644  87.9319  34.4603 0001676  83.3509 276.7816 13.21823936 71676
ONEWEB-0540             
1 54645U 22166D   24143.22838887  .00000038  00000+0  60673-4 0  9997
2 54645  87.9315  34.4813 0001598  86.0998 274.0319 13.21829220 71661
ONEWEB-0542             
1 54646U 22166E   24143.24337359 -.00000197  00000+0 -50756-3 0  9996
2 54646  87.9320  34.4582 0001343  77.9165 282.2120 13.21824995 71670
